MEASAT 3D               
1 52904U 22067B   26119.89399902 -.00000241  00000+0  00000+0 0  9991
2 52904   0.0354 322.9350 0002004  54.5894 253.6536  1.00269375 14164
SES-22                  
1 52933U 22071A   26119.60371081  .00000104  00000+0  00000+0 0  9992
2 52933   0.0143 277.1339 0001023 109.0622 269.7035  1.00269542  7031
WFOV (USA 332)          
1 52940U 22073A   26119.94006631 -.00000360  00000+0  00000+0 0  9990
2 52940   3.5890  79.1246 0001937 249.4805 346.9813  1.00271844 13889
TIANLIAN 2-03           
1 53100U 22078A   26119.91858469  .00000072  00000+0  00000+0 0  9994
2 53100   0.5489  75.6348 0002411 287.6768 195.8295  1.00272623 14065
SBIRS GEO-6 (USA 336)   
1 53355U 22092A   26119.94396632 -.00000297  00000+0  00000+0 0  9994
2 53355   3.3404 316.7231 0002202  75.1549 304.8423  1.00272042 13755
EUTELSAT KONNECT VHTS   
1 53765U 22110A   26119.91702468  .00000017  00000+0  00000+0 0  9994
2 53765   0.0628  92.4889 0002903 280.5017 177.7211  1.00271248  6356
ZHONGXING-1E            
1 53813U 22112A   26119.93262475 -.00000149  00000+0  00000+0 0  9998
2 53813   0.0375  12.5144 0001368 325.6889 296.8309  1.00272276 13360
SES-20                  
1 53960U 22123A   26119.89605127  .00000000  00000+0  00000+0 0  9998
2 53960   0.0184  86.3375 0002031 349.8431   1.1513  1.00268463 13047
SES-21                  
1 53961U 22123B   26119.60555426  .00000068  00000+0  00000+0 0  9998
2 53961   0.0246  58.6892 0000939 333.7862 272.1145  1.00269540  6723
GALAXY 33 (G-33)        
1 54026U 22128A   26119.60082625  .00000078  00000+0  00000+0 0  9993
2 54026   0.0151 278.7119 0001974 117.6968 264.4544  1.00270615 13252
GALAXY 34 (G-34)        
1 54027U 22128B   26119.60570416  .00000000  00000+0  00000+0 0  9999
2 54027   0.0218 249.6919 0001738 160.5121 256.4268  1.00271663 13425
ANGOSAT 2               
1 54033U 22131A   26119.06539759  .00000132  00000+0  00000+0 0  9991
2 54033   0.0095 203.9214 0000954 259.2724 160.3783  1.00273510 12988
EUTELSAT HOTBIRD 13F    
1 54048U 22134A   26119.91901802  .00000087  00000+0  00000+0 0  9995
2 54048   0.0463 286.9529 0002054  74.5644 200.2001  1.00271956 12894
LDPE-2                  
1 54219U 22144A   26119.59131742 -.00000073  00000+0  00000+0 0  9994
2 54219   5.5258  63.8534 0000696  21.8979 142.9721  1.00535164 11355
EUTELSAT HOTBIRD 13G    
1 54225U 22146A   26119.91901802  .00000087  00000+0  00000+0 0  9995
2 54225   0.0381 233.9179 0002044 305.3033  22.4906  1.00271114  6986
ZHONGXING-19            
1 54230U 22148A   26119.87750453 -.00000081  00000+0  00000+0 0  9997
2 54230   0.0054 261.3641 0002368 147.8063 287.7624  1.00273121 12899
GALAXY 31 (G-31)        
1 54243U 22153A   26119.89241126  .00000013  00000+0  00000+0 0  9995
2 54243   0.0116 242.4683 0001483 161.2241  14.4326  1.00274110  6642
GALAXY 32 (G-32)        
1 54244U 22153B   26119.36071069 -.00000176  00000+0  00000+0 0  9996
2 54244   0.0161 300.9664 0002969  95.8797 219.3264  1.00271772 12656
EUTELSAT 10B            
1 54259U 22157A   26119.91849802  .00000068  00000+0  00000+0 0  9994
2 54259   0.0622  90.4977 0001773  31.0454  76.9535  1.00268843 12547
GALAXY 35 (G-35)        
1 54741U 22170A   26119.89804462 -.00000162  00000+0  00000+0 0  9991
2 54741   0.0119 249.3048 0002199 156.5963  42.1373  1.00273103 12404
GALAXY 36 (G-36)        
1 54742U 22170B   26119.89882462 -.00000185  00000+0  00000+0 0  9993
2 54742   0.0204 162.6339 0002586 259.3717  30.4277  1.00272771 12288
METEOSAT-12 (MTG-I1)    
1 54743U 22170C   26119.91641801 -.00000008  00000+0  00000+0 0  9991
2 54743   0.7277  22.9095 0001105 345.8485 178.6695  1.00270504 12496
SHIJIAN-23 (SJ-23)      
1 55131U 23002A   26119.71572448  .00000023  00000+0  00000+0 0  9992
2 55131   3.5947  78.9061 0006629 271.4394 296.2278  1.00461444 12024
APSTAR-6E               
1 55239U 23005A   26120.01433994 -.00000317  00000+0  00000+0 0  9998
2 55239   0.0147 232.1640 0000757 164.7585 320.2068  1.00270932 18207
USA 342                 
1 55263U 23008A   26119.49329777  .00000137  00000+0  00000+0 0  9990
2 55263   0.0133 273.0470 0000105 300.0820 205.7359  1.00273632 12022
LDPE-3A                 
1 55264U 23008B   26119.89747394  .00000003  00000+0  00000+0 0  9996
2 55264   2.2233  82.2302 0000545   7.4759 177.6080  0.99145061 11331
ELEKTRO-L 4             
1 55506U 23016A   26118.93710598 -.00000063  00000+0  00000+0 0  9991
2 55506   0.0757  50.2840 0000600 200.2926 109.4146  1.00271131 11843
AMAZONAS NEXUS          
1 55508U 23017A   26119.00183882  .00000000  00000+0  00000+0 0  9993
2 55508   0.0234  16.5277 0005630  24.6532 115.4536  1.00267853  6551
ZHONGXING-26            
1 55686U 23023A   26119.94127964 -.00000354  00000+0  00000+0 0  9992
2 55686   0.0645  69.2844 0004717 352.7938 259.7617  1.00266810 11740
LUCH-5X (OLYMP-K 2)     
1 55841U 23031A   26119.64357764  .00000032  00000+0  00000+0 0  9996
2 55841   0.0211  86.0677 0001290  92.4918 332.7138  1.00271318 11459
GAOFEN-13 02            
1 55912U 23036A   26119.84003015 -.00000221  00000+0  00000+0 0  9990
2 55912   1.0197 355.0161 0004542 340.2819 333.0869  1.00269106 11600
SES-18                  
1 55970U 23038A   26119.89605127 -.00000101  00000+0  00000+0 0  9990
2 55970   0.0216 270.6389 0001220  70.1794  96.5039  1.00272261 11617
SES-19                  
1 55971U 23038B   26119.58543406  .00000086  00000+0  00000+0 0  9999
2 55971   0.0158 290.9941 0001638 104.6714 257.7309  1.00272422 11609
INTELSAT 40E (IS-40E)   
1 56174U 23052A   26119.36071069 -.00000176  00000+0  00000+0 0  9999
2 56174   0.0191 221.5346 0001283 220.1156 174.5284  1.00272009 11330
VIASAT-3 F1             
1 56370U 23060A   26119.19141948 -.00000188  00000+0  00000+0 0  9994
2 56370   0.0156 284.9069 0000949 166.1481 106.1162  1.00271627 10949
ARCTURUS                
1 56371U 23060B   26119.93080475 -.00000060  00000+0  00000+0 0  9993
2 56371   2.6519  80.5164 0001621   0.7314 184.2158  1.00268708 10974
GS-1                    
1 56372U 23060C   26118.72170463 -.00000214  00000+0  00000+0 0  9998
2 56372   2.5993  80.3820 0004423 274.4792 209.3233  1.00287848  7043
BEIDOU-3 G4             
1 56564U 23066A   26119.94422632 -.00000281  00000+0  00000+0 0  9994
2 56564   0.5523 320.5960 0003065 158.4626 218.8488  1.00271614 10916
ARABSAT-7B (BADR-8)     
1 56757U 23075A   26119.56517387  .00000144  00000+0  00000+0 0  9995
2 56757   0.0801  34.3814 0005249 337.7941  74.8240  1.00273370 10636
NVS-01 (IRNSS-1J)       
1 56759U 23076A   26119.94214632 -.00000337  00000+0  00000+0 0  9992
2 56759   2.2797 246.4328 0005173  50.8803  29.2302  1.00267185 10638
NUSANTARA TIGA (SATRIA) 
1 57045U 23086A   26119.94543966 -.00000235  00000+0  00000+0 0  9994
2 57045   0.0464 314.8371 0004874  23.5189   5.9065  1.00267399  9275
H2SAT (HEINRICH HERTZ)  
1 57213U 23093A   26119.63144427  .00000000  00000+0  00000+0 0  9993
2 57213   0.0131 236.3475 0001089 241.1955 328.0526  1.00268602 10428
SYRACUSE 4B             
1 57214U 23093B   26119.84387772  .00000000  00000+0  00000+0 0  9999
2 57214   0.0136 254.6824 0000390 196.9419  63.5006  1.00269228  6481
JUPITER 3 (ECHOSTAR 24) 
1 57479U 23108A   26119.65993948 -.00000151  00000+0  00000+0 0  9994
2 57479   0.0122 270.8296 0001045 134.7553 314.4234  1.00271872 10157
GALAXY 37 (G-37)        
1 57493U 23112A   26119.60613749  .00000000  00000+0  00000+0 0  9990
2 57493   0.0080 267.7556 0002266 133.8734 267.1454  1.00271541 10057
LUDI TANCE-4 01A        
1 57624U 23120A   26119.72021632 -.00000182  00000+0  00000+0 0  9994
2 57624  15.1318 195.1665 0002655 115.9928 255.2327  1.00267570 10062
TJS-10                  
1 58204U 23169A   26119.70407174 -.00000269  00000+0  00000+0 0  9995
2 58204   2.4212  81.0443 0004044 267.3696 215.1522  1.00382268  9055
ZHONGXING-6E            
1 58253U 23172A   26120.14003308 -.00000360  00000+0  00000+0 0  9996
2 58253   0.0570  80.3460 0003260 322.4690 341.1839  1.00269226  9179
YAOGAN-41               
1 58582U 23197A   26119.94084631 -.00000367  00000+0  00000+0 0  9999
2 58582   3.2174 312.4184 0012821 184.2478 183.1796  1.00271369  8842
OVZON-3                 
1 58698U 24003A   26119.92829140  .00000051  00000+0  00000+0 0  9993
2 58698   0.0105 208.6039 0000042 198.4804 204.6779  1.00274004  6966
INSAT-3DS               
1 58990U 24033A   26117.86494880 -.00000163  00000+0  00000+0 0  9996
2 58990   0.0947  86.8667 0001974 301.8659 220.5579  1.00270644 46562
MERAH PUTIH 2           
1 58995U 24035A   26119.79621084  .00000000  00000+0  00000+0 0  9994
2 58995   0.0159 236.2316 0001952 192.2196 188.8830  1.00267457  8100
TJS-11                  
1 59020U 24037A   26119.44118109 -.00000378  00000+0  00000+0 0  9996
2 59020   4.2637 326.4861 0005526  84.4158  85.6034  1.00267060  8093
HULIANWAN GAOGUI-01 (H*)
1 59069U 24040A   26119.92309138  .00000156  00000+0  00000+0 0  9993
2 59069   0.0648 326.0781 0003732  64.3186 193.3893  1.00269030  6844
EUTELSAT 36D            
1 59346U 24059A   26119.92361138  .00000000  00000+0  00000+0 0  9997
2 59346   0.0186 254.6480 0000432 242.3912  89.1846  1.00268083  7668
PAKSAT-MM1              
1 59915U 24104A   26119.92404471  .00000154  00000+0  00000+0 0  9998
2 59915   0.0322 113.5403 0002256 274.1407 201.0887  1.00275680  7041
ASTRA 1P (SES-24)       
1 60086U 24115A   26119.84899106  .00000120  00000+0  00000+0 0  9998
2 60086   0.0825  43.1369 0002397 280.4356 219.0691  1.00274152  6716
GOES 19                 
1 60133U 24119A   26119.75886983 -.00000249  00000+0  00000+0 0  9997
2 60133   0.0052 211.8332 0000679 237.4136 326.4685  1.00272196  6479
ZHONGXING-3A            
1 60179U 24122A   26118.51058469 -.00000319  00000+0  00000+0 0  9992
2 60179   0.0344  35.6633 0001863   7.4218  98.7953  1.00271441  6818
